{
  "type": "FeatureCollection",
  "features": [
    {
      "type": "Feature",
      "properties": {
        "norad_id": 46435,
        "name": "IRIDIUM 33 DEB",
        "group": "iridium-33-debris",
        "lat": -40.40244769084187,
        "lon": 19.09021974883035,
        "alt_km": 739.3338478595697,
        "timestamp": "2025-12-08T03:50:07.382260+00:00",
        "meta_object_name": "IRIDIUM 33 DEB",
        "meta_object_id": "1997-051ABN",
        "meta_epoch": "2025-12-05T21:11:31.918848",
        "meta_mean_motion": 14.31677578,
        "meta_eccentricity": 0.02114169,
        "meta_inclination": 86.2838,
        "meta_ra_of_asc_node": 196.8975,
        "meta_arg_of_pericenter": 298.5374,
        "meta_mean_anomaly": 75.9758,
        "meta_ephemeris_type": 0,
        "meta_classification_type": "U",
        "meta_norad_cat_id": 46435,
        "meta_element_set_no": 999,
        "meta_rev_at_epoch": 7818,
        "meta_bstar": 0.013325528,
        "meta_mean_motion_dot": 0.00045688,
        "meta_mean_motion_ddot": 0,
        "tle_line1": "1 46435U 97051ABN 25339.88300832  .00045688  00000+0  13326-1 0  9994",
        "tle_line2": "2 46435  86.2838 196.8975 0211416 298.5374  75.9758 14.31677578 78181"
      },
      "geometry": {
        "type": "Point",
        "coordinates": [
          19.09021974883035,
          -40.40244769084187
        ]
      }
    },
    {
      "type": "Feature",
      "properties": {
        "norad_id": 46734,
        "name": "IRIDIUM 33 DEB",
        "group": "iridium-33-debris",
        "lat": -72.99394331086958,
        "lon": -162.78899310439778,
        "alt_km": 763.5753534735804,
        "timestamp": "2025-12-08T03:50:07.382271+00:00",
        "meta_object_name": "IRIDIUM 33 DEB",
        "meta_object_id": "1997-051ABR",
        "meta_epoch": "2025-12-03T20:12:35.443296",
        "meta_mean_motion": 14.41795233,
        "meta_eccentricity": 0.00394426,
        "meta_inclination": 86.2642,
        "meta_ra_of_asc_node": 6.7702,
        "meta_arg_of_pericenter": 5.4679,
        "meta_mean_anomaly": 171.2392,
        "meta_ephemeris_type": 0,
        "meta_classification_type": "U",
        "meta_norad_cat_id": 46734,
        "meta_element_set_no": 999,
        "meta_rev_at_epoch": 62882,
        "meta_bstar": 0.0014594249,
        "meta_mean_motion_dot": 4.83e-05,
        "meta_mean_motion_ddot": 0,
        "tle_line1": "1 46734U 97051ABR 25337.84207689  .00004830  00000+0  14594-2 0  9999",
        "tle_line2": "2 46734  86.2642   6.7702 0039442   5.4679 171.2392 14.41795233628829"
      },
      "geometry": {
        "type": "Point",
        "coordinates": [
          -162.78899310439778,
          -72.99394331086958
        ]
      }
    },
    {
      "type": "Feature",
      "properties": {
        "norad_id": 46965,
        "name": "IRIDIUM 33 DEB",
        "group": "iridium-33-debris",
        "lat": 86.06731236785656,
        "lon": 51.533938058184674,
        "alt_km": 686.9915928205792,
        "timestamp": "2025-12-08T03:50:07.382281+00:00",
        "meta_object_name": "IRIDIUM 33 DEB",
        "meta_object_id": "1997-051ABX",
        "meta_epoch": "2025-12-06T23:36:16.318080",
        "meta_mean_motion": 14.60228629,
        "meta_eccentricity": 0.00188578,
        "meta_inclination": 86.335,
        "meta_ra_of_asc_node": 343.2503,
        "meta_arg_of_pericenter": 353.5175,
        "meta_mean_anomaly": 35.294,
        "meta_ephemeris_type": 0,
        "meta_classification_type": "U",
        "meta_norad_cat_id": 46965,
        "meta_element_set_no": 999,
        "meta_rev_at_epoch": 62184,
        "meta_bstar": 0.0013461013,
        "meta_mean_motion_dot": 6.528e-05,
        "meta_mean_motion_ddot": 0,
        "tle_line1": "1 46965U 97051ABX 25340.98352220  .00006528  00000+0  13461-2 0  9994",
        "tle_line2": "2 46965  86.3350 343.2503 0018857 353.5175  35.2940 14.60228629621849"
      },
      "geometry": {
        "type": "Point",
        "coordinates": [
          51.533938058184674,
          86.06731236785656
        ]
      }
    },
    {
      "type": "Feature",
      "properties": {
        "norad_id": 46971,
        "name": "IRIDIUM 33 DEB",
        "group": "iridium-33-debris",
        "lat": -86.30388024939259,
        "lon": -122.3824431349383,
        "alt_km": 580.8533072496284,
        "timestamp": "2025-12-08T03:50:07.382291+00:00",
        "meta_object_name": "IRIDIUM 33 DEB",
        "meta_object_id": "1997-051ACD",
        "meta_epoch": "2025-11-30T18:57:44.502624",
        "meta_mean_motion": 14.96904917,
        "meta_eccentricity": 0.00065248,
        "meta_inclination": 86.3392,
        "meta_ra_of_asc_node": 338.7285,
        "meta_arg_of_pericenter": 8.9727,
        "meta_mean_anomaly": 165.6369,
        "meta_ephemeris_type": 0,
        "meta_classification_type": "U",
        "meta_norad_cat_id": 46971,
        "meta_element_set_no": 999,
        "meta_rev_at_epoch": 64051,
        "meta_bstar": 0.0032009998,
        "meta_mean_motion_dot": 0.00036919,
        "meta_mean_motion_ddot": 0,
        "tle_line1": "1 46971U 97051ACD 25334.79009841  .00036919  00000+0  32010-2 0  9999",
        "tle_line2": "2 46971  86.3392 338.7285 0006524   8.9727 165.6369 14.96904917640518"
      },
      "geometry": {
        "type": "Point",
        "coordinates": [
          -122.3824431349383,
          -86.30388024939259
        ]
      }
    },
    {
      "type": "Feature",
      "properties": {
        "norad_id": 46974,
        "name": "IRIDIUM 33 DEB",
        "group": "iridium-33-debris",
        "lat": 65.80189814228329,
        "lon": 115.55617119505183,
        "alt_km": 787.0477476091282,
        "timestamp": "2025-12-08T03:50:07.382302+00:00",
        "meta_object_name": "IRIDIUM 33 DEB",
        "meta_object_id": "1997-051ACG",
        "meta_epoch": "2025-12-03T15:25:18.733152",
        "meta_mean_motion": 14.43893104,
        "meta_eccentricity": 0.00960014,
        "meta_inclination": 86.2979,
        "meta_ra_of_asc_node": 109.2433,
        "meta_arg_of_pericenter": 216.6177,
        "meta_mean_anomaly": 142.8439,
        "meta_ephemeris_type": 0,
        "meta_classification_type": "U",
        "meta_norad_cat_id": 46974,
        "meta_element_set_no": 999,
        "meta_rev_at_epoch": 57377,
        "meta_bstar": 0.0066247967,
        "meta_mean_motion_dot": 0.0002397,
        "meta_mean_motion_ddot": 0,
        "tle_line1": "1 46974U 97051ACG 25337.64257793  .00023970  00000+0  66248-2 0  9993",
        "tle_line2": "2 46974  86.2979 109.2433 0096001 216.6177 142.8439 14.43893104573778"
      },
      "geometry": {
        "type": "Point",
        "coordinates": [
          115.55617119505183,
          65.80189814228329
        ]
      }
    },
    {
      "type": "Feature",
      "properties": {
        "norad_id": 46979,
        "name": "IRIDIUM 33 DEB",
        "group": "iridium-33-debris",
        "lat": 56.343418260464745,
        "lon": 56.20370846447456,
        "alt_km": 615.2821587424032,
        "timestamp": "2025-12-08T03:50:07.382312+00:00",
        "meta_object_name": "IRIDIUM 33 DEB",
        "meta_object_id": "1997-051ACM",
        "meta_epoch": "2025-12-05T11:03:27.844416",
        "meta_mean_motion": 14.88622682,
        "meta_eccentricity": 0.00281198,
        "meta_inclination": 86.3357,
        "meta_ra_of_asc_node": 51.9321,
        "meta_arg_of_pericenter": 248.4888,
        "meta_mean_anomaly": 111.334,
        "meta_ephemeris_type": 0,
        "meta_classification_type": "U",
        "meta_norad_cat_id": 46979,
        "meta_element_set_no": 999,
        "meta_rev_at_epoch": 35320,
        "meta_bstar": 0.0078016126,
        "meta_mean_motion_dot": 0.00073917,
        "meta_mean_motion_ddot": 0,
        "tle_line1": "1 46979U 97051ACM 25339.46073894  .00073917  00000+0  78016-2 0  9990",
        "tle_line2": "2 46979  86.3357  51.9321 0028119 248.4888 111.3340 14.88622682353206"
      },
      "geometry": {
        "type": "Point",
        "coordinates": [
          56.20370846447456,
          56.343418260464745
        ]
      }
    }
  ]
}